[{"OBJECT_NAME":"STARLINK-34575","OBJECT_ID":"2025-152T","EPOCH":"2026-03-09T13:29:55.972032","MEAN_MOTION":15.0564932,"ECCENTRICITY":0.00016547,"INCLINATION":97.6011,"RA_OF_ASC_NODE":285.4649,"ARG_OF_PERICENTER":72.1858,"MEAN_ANOMALY":287.9549,"EPHEMERIS_TYPE":0,"CLASSIFICATION_TYPE":"U","NORAD_CAT_ID":64859,"ELEMENT_SET_NO":999,"REV_AT_EPOCH":3540,"BSTAR":0.00016704605,"MEAN_MOTION_DOT":2.35e-5,"MEAN_MOTION_DDOT":0},{"OBJECT_NAME":"CZ-4B DEB","OBJECT_ID":"2008-053K","EPOCH":"2026-03-03T06:56:31.900704","MEAN_MOTION":15.04681815,"ECCENTRICITY":0.00115476,"INCLINATION":97.843,"RA_OF_ASC_NODE":88.8262,"ARG_OF_PERICENTER":63.9062,"MEAN_ANOMALY":296.3351,"EPHEMERIS_TYPE":0,"CLASSIFICATION_TYPE":"U","NORAD_CAT_ID":36289,"ELEMENT_SET_NO":999,"REV_AT_EPOCH":93214,"BSTAR":0.00025594062,"MEAN_MOTION_DOT":3.541e-5,"MEAN_MOTION_DDOT":0}]
